GLOBALSTAR M057         
1 25943U 99058A   24313.85674835 -.00000061  00000+0  28967-3 0  9995
2 25943  51.9983 253.4891 0002129 303.3029  56.7616 12.24802409139934
GLOBALSTAR M059         
1 25944U 99058B   24313.86755480 -.00000032  00000+0  66975-3 0  9992
2 25944  52.0013  83.2006 0000901 126.8033 356.1374 11.99968938547591
GLOBALSTAR M056         
1 25945U 99058C   24313.83213780 -.00000102  00000+0 -17237-3 0  9998
2 25945  51.9957  90.9118 0001940 106.7285  10.4680 12.04778677136068
GLOBALSTAR M031         
1 25946U 99058D   24313.90227980 -.00000040  00000+0  51763-3 0  9996
2 25946  51.9986 356.2432 0001632  95.2033  75.6637 12.16021303137986
GLOBALSTAR M039         
1 25961U 99062A   24313.88426986 -.00000017  00000+0  48491-3 0  9990
2 25961  51.9845 219.7081 0001892 209.8360 150.2399 12.62310387152395
GLOBALSTAR M034         
1 25962U 99062B   24313.86341529 -.00000060  00000+0  33942-3 0  9991
2 25962  51.9870 224.0988 0014361 348.8101  95.2809 11.79435727112394
GLOBALSTAR M029         
1 25963U 99062C   24314.09162128 -.00000041  00000+0  55715-3 0  9995
2 25963  51.9821 330.8244 0002712  46.9912 349.1901 11.99886535142751
GLOBALSTAR M061         
1 25964U 99062D   24313.63669521 -.00000052  00000+0  45559-3 0  9991
2 25964  51.9816  45.7944 0005487 266.5763 238.1469 11.76768110 95218
